[Satellite]
VERSION=1.1
NAME=IRIDIUM 11 [+]
NICKNAME=IRIDIUM 11 [+]
TLE1=1 25578U 98074B   15055.54824428  .00000157  00000-0  49066-4 0  9990
TLE2=2 25578  86.3925 248.2235 0002139 112.2939 299.9571 14.34219499856489
